HST                     
1 20580U 90037B   26169.77310657  .00005163  00000+0  16118-3 0  9998
2 20580  28.4721  69.7363 0001745 159.6113 200.4553 15.30761668788812
POLAR                   
1 23802U 96013A   26168.80723713  .00000114  00000+0  00000+0 0  9992
2 23802  79.8548 227.0450 6471047 209.0570  89.8865  1.29846132144863
SWAS                    
1 25560U 98071A   26169.87098194  .00002178  00000+0  14151-3 0  9995
2 25560  69.8944 223.1770 0008658 258.2547 101.7646 15.09633279497529
CXO                     
1 25867U 99040B   26172.02247085  .00000453  00000+0  00000+0 0  9996
2 25867  56.2474 116.4966 7828329 310.2765   0.2930  0.37807394 17333
XMM-NEWTON              
1 25989U 99066A   26171.34141684 -.00000033  00000+0  00000+0 0  9996
2 25989  64.4680 282.9447 4672329  64.8598   0.1279  0.50127883 23011
TERRA                   
1 25994U 99068A   26169.93246353  .00000284  00000+0  66850-4 0  9992
2 25994  97.9455 219.4096 0001722 183.5712 224.0689 14.61104268409861
CLUSTER II-FM7 (SAMBA)  
1 26410U 00041A   26170.36958808  .00004714  00000+0  00000+0 0  9995
2 26410 149.9200  51.3283 9058303 268.5109 359.4853  0.44833363 20329
CLUSTER II-FM8 (TANGO)  
1 26464U 00045B   26166.18760269  .00011725  00000+0  00000+0 0  9995
2 26464 150.1504  51.7507 9057004 268.7261   2.8044  0.44418308 20307
ODIN                    
1 26702U 01007A   26169.68178970  .00153947  00000+0  96741-3 0  9993
2 26702  97.3818 210.7208 0006625 142.4379 217.7351 15.76258882389631
TIMED                   
1 26998U 01055B   26169.88150983  .00000767  00000+0  73181-4 0  9994
2 26998  74.0672 231.6071 0001217 332.9601  27.1520 14.95297317331076
CORIOLIS                
1 27640U 03001A   26169.88834247  .00000066  00000+0  51635-4 0  9996
2 27640  98.7125 176.7472 0013489 203.6286 156.4272 14.19945188214463
SORCE                   
1 27651U 03004A   26169.93272700  .00001929  00000+0  14881-3 0  9997
2 27651  39.9901 251.7194 0016260  62.4892 297.7553 15.03720067272166
MOST                    
1 27843U 03031D   26169.90080731  .00000036  00000+0  36437-4 0  9998
2 27843  98.7044 177.6029 0008778 244.9079 115.1187 14.21322738190956
SCISAT 1                
1 27858U 03036A   26169.30611021  .00000390  00000+0  54451-4 0  9994
2 27858  73.9283 169.1196 0008516 238.9735 121.0606 14.81448472231616
SWIFT                   
1 28485U 04047A   26169.33187220  .00042658  00000+0  35233-3 0  9995
2 28485  20.5514 176.0679 0001495 306.1667  53.8640 15.68419656187047
HINODE (SOLAR-B)        
1 29479U 06041A   26169.75240310  .00000519  00000+0  97550-4 0  9992
2 29479  98.0545 185.8818 0015978 284.3528  75.5904 14.68624897 55101
SHIJIAN-6 02A (SJ-6 02A)
1 29505U 06046A   26169.93856931  .00003824  00000+0  19728-3 0  9991
2 29505  97.6352 211.0183 0004500 121.1822 238.9853 15.16956097 72531
SHIJIAN-6 02B (SJ-6 02B)
1 29506U 06046B   26170.01250865  .00000965  00000+0  79404-4 0  9998
2 29506  97.7153 199.0602 0015397  55.3791 304.8883 15.01380804 71011
FGRST (GLAST)           
1 33053U 08029A   26169.73458762  .00002105  00000+0  71077-4 0  9992
2 33053  25.5804 193.7373 0007933 347.8504  12.1843 15.23951104996077
SDO                     
1 36395U 10005A   26168.41002763 -.00000096  00000+0  00000+0 0  9992
2 36395  34.6527  86.3378 0001734  44.0102 180.8312  1.00269958 60061
CRYOSAT 2               
1 36508U 10013A   26169.94235295  .00000185  00000+0  45308-4 0  9997
2 36508  92.0357 277.7281 0002135  90.3567 269.7885 14.51899747858332
X-SAT                   
1 37389U 11015C   26169.98065831  .00000179  00000+0  93664-4 0  9990
2 37389  98.3512 146.9190 0013786 343.2996  16.7728 14.25207068787931
GCOM-W1 (SHIZUKU)       
1 38337U 12025A   26169.81648034  .00000349  00000+0  87400-4 0  9990
2 38337  98.2021 110.3474 0001764  74.0982 338.1707 14.57125866749279
NUSTAR                  
1 38358U 12031A   26170.00002315  .00017175  00000+0  10040-2 0  9998
2 38358   6.0281  20.5352 0007388 143.3536  98.8320 15.08811539  1309
NEOSSAT                 
1 39089U 13009D   26169.95167785  .00000102  00000+0  49933-4 0  9998
2 39089  98.4178 349.9423 0009950 237.8832 122.1389 14.35826944696999
BRITE-AUSTRIA           
1 39091U 13009F   26169.74047145  .00000124  00000+0  56763-4 0  9998
2 39091  98.3995 349.1376 0009202 231.3134 128.7230 14.36542637697275
IRIS                    
1 39197U 13033A   26169.51170041  .00000763  00000+0  93582-4 0  9998
2 39197  97.9328   8.7846 0023454 317.3281  42.6112 14.85887377700578
HISAKI (SPRINT-A)       
1 39253U 13049A   26169.82280811  .00000101  00000+0  52403-4 0  9992
2 39253  29.7179 211.6971 0136853  30.1120 330.7239 13.55544874631642
CASSIOPE                
1 39265U 13055A   26169.86769254  .00042359 -53079-6  46124-3 0  9994
2 39265  80.9136  64.6808 0292245  56.8121 306.0772 15.25330190667927
STSAT-3                 
1 39422U 13066G   26169.97718416  .00002817  00000+0  21490-3 0  9999
2 39422  97.6227 139.8370 0011100  40.2443 319.9602 15.02765829684470
SWARM B                 
1 39451U 13067A   26169.90145075  .00002708  00000+0  96229-4 0  9992
2 39451  87.7442 341.7954 0003255  85.2490 274.9131 15.28559962683503
